[{"OBJECT_NAME":"STARLINK-2752","OBJECT_ID":"2021-044BG","EPOCH":"2026-03-10T00:00:02.999808","MEAN_MOTION":15.3016501,"ECCENTRICITY":0.0001606,"INCLINATION":53.1594,"RA_OF_ASC_NODE":73.8214,"ARG_OF_PERICENTER":99.0542,"MEAN_ANOMALY":90.7161,"EPHEMERIS_TYPE":0,"CLASSIFICATION_TYPE":"U","NORAD_CAT_ID":48692,"ELEMENT_SET_NO":999,"REV_AT_EPOCH":574,"BSTAR":0.0013729382,"MEAN_MOTION_DOT":0.00040481,"MEAN_MOTION_DDOT":0},{"OBJECT_NAME":"CZ-4B DEB","OBJECT_ID":"1999-057DZ","EPOCH":"2026-03-09T09:52:12.897696","MEAN_MOTION":15.33653758,"ECCENTRICITY":0.00127381,"INCLINATION":98.4932,"RA_OF_ASC_NODE":238.6814,"ARG_OF_PERICENTER":254.7139,"MEAN_ANOMALY":105.2693,"EPHEMERIS_TYPE":0,"CLASSIFICATION_TYPE":"U","NORAD_CAT_ID":26235,"ELEMENT_SET_NO":999,"REV_AT_EPOCH":38912,"BSTAR":0.0023807093,"MEAN_MOTION_DOT":0.00078286,"MEAN_MOTION_DDOT":0}]
